[{"OBJECT_NAME":"HAWK-7A","OBJECT_ID":"2023-054P","EPOCH":"2026-03-09T16:32:19.096224","MEAN_MOTION":15.26207271,"ECCENTRICITY":0.0004249,"INCLINATION":97.2827,"RA_OF_ASC_NODE":318.5579,"ARG_OF_PERICENTER":51.2619,"MEAN_ANOMALY":308.8999,"EPHEMERIS_TYPE":0,"CLASSIFICATION_TYPE":"U","NORAD_CAT_ID":56191,"ELEMENT_SET_NO":999,"REV_AT_EPOCH":16184,"BSTAR":0.00030248406,"MEAN_MOTION_DOT":7.758e-5,"MEAN_MOTION_DDOT":0},{"OBJECT_NAME":"STARLINK-31783","OBJECT_ID":"2024-090W","EPOCH":"2026-03-09T08:21:35.882208","MEAN_MOTION":15.27582441,"ECCENTRICITY":0.00017197,"INCLINATION":43.0002,"RA_OF_ASC_NODE":185.7862,"ARG_OF_PERICENTER":288.569,"MEAN_ANOMALY":71.4975,"EPHEMERIS_TYPE":0,"CLASSIFICATION_TYPE":"U","NORAD_CAT_ID":59750,"ELEMENT_SET_NO":999,"REV_AT_EPOCH":10337,"BSTAR":-4.2087151e-5,"MEAN_MOTION_DOT":-1.42e-5,"MEAN_MOTION_DDOT":0}]
